1 25986U 99065G   19282.06613534  .00000040  00000-0  65664-4 0  9994
2 25986  45.0397 157.7487 0003863  55.3029 304.8182 14.32769974 36684
1 25986U 99065G   19282.69368484 +.00000042 +00000-0 +66412-4 0  9998
2 25986 045.0396 154.8005 0003843 059.1676 300.9549 14.32770137036817
1 25986U 99065G   19283.11205121  .00000035  00000-0  64166-4 0  9990
2 25986  45.0396 152.8351 0003833  61.8008 298.3226 14.32770182 36831
1 25986U 99065G   19283.87905596 +.00000029 +00000-0 +61752-4 0  9997
2 25986 045.0395 149.2316 0003813 066.8470 293.2778 14.32770333036987
